NORAD_CAT_ID,OBJECT_NAME,OBJECT_TYPE,EPOCH,MEAN_MOTION,ECCENTRICITY,INCLINATION,RA_OF_ASC_NODE,ARG_OF_PERICENTER,MEAN_ANOMALY,BSTAR,MEAN_MOTION_DOT,MEAN_MOTION_DDOT,TLE_LINE0,TLE_LINE1,TLE_LINE2,SEMIMAJOR_AXIS,PERIOD,APOGEE,PERIGEE,DECAYED
54080.0,STARLINK-5160,PAYLOAD,2022-11-07 08:00:01,15.73176444,0.0001983,53.2166,60.1813,29.9467,175.9519,0.00058453,0.0008214,0.0,0 STARLINK-5160,1 54080U 22136AF  22311.33334491  .00082140  00000-0  58453-3 0  9993,2 54080  53.2166  60.1813 0001983  29.9467 175.9519 15.73176444  3304,6727.962,91.535,351.161,348.49300000000005,0.0
54080.0,STARLINK-5160,PAYLOAD,2022-11-07 22:00:00,15.73292417,0.0002225,53.2159,57.2958,24.0527,247.5097,-0.00083926,-0.00117257,0.0,0 STARLINK-5160,1 54080U 22136AF  22311.91667824 -.00117257  00000-0 -83926-3 0  9999,2 54080  53.2159  57.2958 0002225  24.0527 247.5097 15.73292417  1300,6727.632,91.528,350.994,348.0,0.0
54080.0,STARLINK-5160,PAYLOAD,2022-11-08 10:00:01,15.73232632,0.0002162,53.2165,54.82100000000001,24.9786,200.1665,-0.00041432,-0.00058453,0.0,0 STARLINK-5160,1 54080U 22136AF  22312.41668981 -.00058453  00000-0 -41432-3 0  9998,2 54080  53.2165  54.8210 0002162  24.9786 200.1665 15.73232632  3476,6727.802,91.531,351.122,348.213,0.0
54080.0,STARLINK-5160,PAYLOAD,2022-11-08 14:00:01,15.73207417,0.0002329,53.2164,53.9973,21.8754,67.6797,-0.00046854,-0.00065895,0.0,0 STARLINK-5160,1 54080U 22136AF  22312.58334491 -.00065895  00000-0 -46854-3 0  9993,2 54080  53.2164  53.9973 0002329  21.8754  67.6797 15.73207417  1302,6727.874,91.533,351.306,348.172,0.0
54080.0,STARLINK-5160,PAYLOAD,2022-11-08 22:00:00,15.73171555,0.0002336,53.2165,52.3474,16.6139,161.8578,-0.00011221,-0.00016322,0.0,0 STARLINK-5160,1 54080U 22136AF  22312.91667824 -.00016322  00000-0 -11221-3 0  9990,2 54080  53.2165  52.3474 0002336  16.6139 161.8578 15.73171555  1306,6727.976,91.535,351.413,348.27,0.0
54080.0,STARLINK-5160,PAYLOAD,2022-11-09 06:00:00,15.73145475,0.0002256,53.2167,50.6967,20.9555,246.3945,0.00028831,0.00039943,0.0,0 STARLINK-5160,1 54080U 22136AF  22313.25001157  .00039943  00000-0  28831-3 0  9996,2 54080  53.2167  50.6967 0002256  20.9555 246.3945 15.73145475  3601,6728.051,91.536,351.43300000000005,348.398,0.0
54080.0,STARLINK-5160,PAYLOAD,2022-11-09 14:00:01,15.73156306,0.0002582,53.2163,49.0495,21.7121,334.514,0.00056501,0.00079285,0.0,0 STARLINK-5160,1 54080U 22136AF  22313.58334491  .00079285  00000-0  56501-3 0  9990,2 54080  53.2163  49.0495 0002582  21.7121 334.5140 15.73156306  1302,6728.02,91.536,351.622,348.148,0.0
54080.0,STARLINK-5160,PAYLOAD,2022-11-09 22:00:01,15.73261591,0.0002478,53.2159,47.3993,17.146,68.0385,-0.00077349,-0.00108096,0.0,0 STARLINK-5160,1 54080U 22136AF  22313.91668981 -.00108096  00000-0 -77349-3 0  9999,2 54080  53.2159  47.3993 0002478  17.1460  68.0385 15.73261591  1303,6727.72,91.53,351.25199999999984,347.917,0.0
54080.0,STARLINK-5160,PAYLOAD,2022-11-10 06:00:00,15.73145603,0.0002253,53.2162,45.7488,14.9657,159.1048,0.0004356,0.00060818,0.0,0 STARLINK-5160,1 54080U 22136AF  22314.25001157  .00060818  00000-0  43560-3 0  9998,2 54080  53.2162  45.7488 0002253  14.9657 159.1048 15.73145603  3756,6728.05,91.536,351.431,348.399,0.0
54080.0,STARLINK-5160,PAYLOAD,2022-11-10 14:00:01,15.73199928,0.0002624,53.2163,44.1015,15.5685,247.3846,-0.00029417,-0.0004171,0.0,0 STARLINK-5160,1 54080U 22136AF  22314.58334491 -.00041710  00000-0 -29417-3 0  9991,2 54080  53.2163  44.1015 0002624  15.5685 247.3846 15.73199928  1300,6727.895,91.533,351.526,347.995,0.0
54080.0,STARLINK-5160,PAYLOAD,2022-11-10 22:00:00,15.73169718,0.0002661,53.2163,42.4511,18.6518,333.2117,0.00021995,0.00030322,0.0,0 STARLINK-5160,1 54080U 22136AF  22314.91667824  .00030322  00000-0  21995-3 0  9995,2 54080  53.2163  42.4511 0002661  18.6518 333.2117 15.73169718  3865,6727.982,91.535,351.63699999999994,348.056,0.0
54080.0,STARLINK-5160,PAYLOAD,2022-11-11 14:00:01,15.73241659,0.0002891,53.216,39.1533,20.3694,149.3542,0.00045074,0.00063238,0.0,0 STARLINK-5160,1 54080U 22136AF  22315.58334491  .00063238  00000-0  45074-3 0  9996,2 54080  53.2160  39.1533 0002891  20.3694 149.3542 15.73241659  1309,6727.776,91.531,351.586,347.696,0.0
54080.0,STARLINK-5160,PAYLOAD,2022-11-11 16:00:01,15.73257796,0.0002908,53.2159,38.7411,18.7994,263.236,0.00029615,0.00041255,0.0,0 STARLINK-5160,1 54080U 22136AF  22315.66668981  .00041255  00000-0  29615-3 0  9997,2 54080  53.2159  38.7411 0002908  18.7994 263.2360 15.73257796  3989,6727.73,91.53,351.552,347.639,0.0
54080.0,STARLINK-5160,PAYLOAD,2022-11-11 22:00:00,15.73282266,0.0002794,53.2161,37.4998,17.0209,241.6973,-0.00027133,-0.0003867,0.0,0 STARLINK-5160,1 54080U 22136AF  22315.91667824 -.00038670  00000-0 -27133-3 0  9992,2 54080  53.2161  37.4998 0002794  17.0209 241.6973 15.73282266  1306,6727.661,91.528,351.405,347.646,0.0
54080.0,STARLINK-5160,PAYLOAD,2022-11-12 08:00:01,15.73291369,0.0002648,53.2158,35.4402,15.7285,84.2298,-0.00051584,-0.00072691,0.0,0 STARLINK-5160,1 54080U 22136AF  22316.33334491 -.00072691  00000-0 -51584-3 0  9998,2 54080  53.2158  35.4402 0002648  15.7285  84.2298 15.73291369  4080,6727.635,91.528,351.281,347.718,0.0
54080.0,STARLINK-5160,PAYLOAD,2022-11-12 14:00:01,15.73240406,0.0002883,53.2159,34.2043,14.6022,62.1249,-0.00046651,-0.00065714,0.0,0 STARLINK-5160,1 54080U 22136AF  22316.58334491 -.00065714  00000-0 -46651-3 0  9992,2 54080  53.2159  34.2043 0002883  14.6022  62.1249 15.73240406  1306,6727.78,91.531,351.585,347.705,0.0
54080.0,STARLINK-5160,PAYLOAD,2022-11-12 22:00:00,15.73207071,0.000288,53.216,32.5534,14.7007,150.9745,-0.00055263,-0.00077512,0.0,0 STARLINK-5160,1 54080U 22136AF  22316.91667824 -.00077512  00000-0 -55263-3 0  9996,2 54080  53.2160  32.5534 0002880  14.7007 150.9745 15.73207071  1303,6727.875,91.533,351.67800000000005,347.802,0.0
54080.0,STARLINK-5160,PAYLOAD,2022-11-13 14:00:01,15.73136214,0.0003126,53.2156,29.2558,16.4452,327.039,0.0006422,0.00090249,0.0,0 STARLINK-5160,1 54080U 22136AF  22317.58334491  .00090249  00000-0  64220-3 0  9994,2 54080  53.2156  29.2558 0003126  16.4452 327.0390 15.73136214  1307,6728.0769999999975,91.537,352.045,347.839,0.0
54080.0,STARLINK-5160,PAYLOAD,2022-11-13 22:00:00,15.73214151,0.000294,53.2153,27.6048,15.513,56.8549,-2.0679e-06,-9.13e-06,0.0,0 STARLINK-5160,1 54080U 22136AF  22317.91667824 -.00000913  00000-0 -20679-5 0  9993,2 54080  53.2153  27.6048 0002940  15.5130  56.8549 15.73214151  1306,6727.855,91.532,351.6980000000001,347.742,0.0
54080.0,STARLINK-5160,PAYLOAD,2022-11-14 14:00:01,15.73228891,0.0003129,53.2157,24.3066,11.6567,238.6011,-2.9619e-05,-4.784e-05,0.0,0 STARLINK-5160,1 54080U 22136AF  22318.58334491 -.00004784  00000-0 -29619-4 0  9990,2 54080  53.2157  24.3066 0003129  11.6567 238.6011 15.73228891  1305,6727.813,91.531,351.783,347.5730000000001,0.0
54080.0,STARLINK-5160,PAYLOAD,2022-11-14 22:00:00,15.73196642,0.0002986,53.2165,22.6528,11.3833,327.8476,8.193700000000001e-05,0.00010892,0.0,0 STARLINK-5160,1 54080U 22136AF  22318.91667824  .00010892  00000-0  81937-4 0  9992,2 54080  53.2165  22.6528 0002986  11.3833 327.8476 15.73196642  1305,6727.905,91.533,351.779,347.761,0.0
54080.0,STARLINK-5160,PAYLOAD,2022-11-15 14:00:01,15.73220057,0.0003273999999999,53.2155,19.3584,6.8588,150.2442,0.00010012,0.00013466,0.0,0 STARLINK-5160,1 54080U 22136AF  22319.58334491  .00013466  00000-0  10012-3 0  9992,2 54080  53.2155  19.3584 0003274   6.8588 150.2442 15.73220057  1305,6727.8380000000025,91.532,351.906,347.5,0.0
54080.0,STARLINK-5160,PAYLOAD,2022-11-15 18:00:02,15.73252355,0.000327,53.2149,18.5329,5.9359,15.7052,-0.00047069,-0.00066332,0.0,0 STARLINK-5160,1 54080U 22136AF  22319.75002315 -.00066332  00000-0 -47069-3 0  9992,2 54080  53.2149  18.5329 0003270   5.9359  15.7052 15.73252355  4624,6727.746,91.53,351.811,347.411,0.0
54080.0,STARLINK-5160,PAYLOAD,2022-11-15 22:00:00,15.73226757,0.0003094,53.2152,17.7071,6.901,239.1653,-0.00043246,-0.00060964,0.0,0 STARLINK-5160,1 54080U 22136AF  22319.91667824 -.00060964  00000-0 -43246-3 0  9990,2 54080  53.2152  17.7071 0003094   6.9010 239.1653 15.73226757  1300,6727.819,91.532,351.765,347.602,0.0
54080.0,STARLINK-5160,PAYLOAD,2022-11-16 14:00:01,15.73250267,0.0003284,53.2163,14.4076,4.882,59.1109,-0.00085451,-0.00119164,0.0,0 STARLINK-5160,1 54080U 22136AF  22320.58335648 -.00119164  00000-0 -85451-3 0  9992,2 54080  53.2163  14.4076 0003284   4.8820  59.1109 15.73250267  4759,6727.752,91.53,351.826,347.407,0.0
54080.0,STARLINK-5160,PAYLOAD,2022-11-16 20:00:01,15.73261218,0.0002975,53.2169,13.167,348.3147,52.3227,-0.003111,-0.00417539,0.0,0 STARLINK-5160,1 54080U 22136AF  22320.83334491 -.00417539  00000-0 -31110-2 0  9994,2 54080  53.2169  13.1670 0002975 348.3147  52.3227 15.73261218  4793,6727.721,91.53,351.587,347.584,0.0
54080.0,STARLINK-5160,PAYLOAD,2022-11-16 22:00:08,15.73259368,0.0002712,53.2174,12.7525,341.463,171.8583,-0.0044202,-0.00581633,0.0,0 STARLINK-5160,1 54080U 22136AF  22320.91675926 -.00581633  00000-0 -44202-2 0  9997,2 54080  53.2174  12.7525 0002712 341.4630 171.8583 15.73259368  1302,6727.726,91.53,351.415,347.766,0.0
54080.0,STARLINK-5160,PAYLOAD,2022-11-17 06:00:00,15.72771904,0.0003523,53.2173,11.1028,295.2898,306.3948,-0.0076723,-0.00961455,0.0,0 STARLINK-5160,1 54080U 22136AF  22321.25001157 -.00961455  00000-0 -76723-2 0  9991,2 54080  53.2173  11.1028 0003523 295.2898 306.3948 15.72771904  4863,6729.116,91.558,353.352,348.61,0.0
54080.0,STARLINK-5160,PAYLOAD,2022-11-17 14:00:01,15.72118073,0.0006047,53.2173,9.457,276.8641,52.8046,-0.009847,-0.01175226,0.0,0 STARLINK-5160,1 54080U 22136AF  22321.58334491 -.01175226  00000-0 -98470-2 0  9994,2 54080  53.2173   9.4570 0006047 276.8641  52.8046 15.72118073  4910,6730.982,91.596,356.917,348.776,0.0
